[{"OBJECT_NAME":"OBJECT A","OBJECT_ID":"2024-105A","EPOCH":"2026-03-09T23:44:38.986368","MEAN_MOTION":15.16488121,"ECCENTRICITY":0.00126096,"INCLINATION":97.5907,"RA_OF_ASC_NODE":84.1581,"ARG_OF_PERICENTER":205.4504,"MEAN_ANOMALY":154.6109,"EPHEMERIS_TYPE":0,"CLASSIFICATION_TYPE":"U","NORAD_CAT_ID":59917,"ELEMENT_SET_NO":999,"REV_AT_EPOCH":9799,"BSTAR":0.00023793898,"MEAN_MOTION_DOT":4.573e-5,"MEAN_MOTION_DDOT":0},{"OBJECT_NAME":"RE","OBJECT_ID":"2012-048H","EPOCH":"2026-03-09T14:34:58.971936","MEAN_MOTION":15.18958187,"ECCENTRICITY":0.0110372,"INCLINATION":64.6561,"RA_OF_ASC_NODE":148.4253,"ARG_OF_PERICENTER":206.6471,"MEAN_ANOMALY":152.8958,"EPHEMERIS_TYPE":0,"CLASSIFICATION_TYPE":"U","NORAD_CAT_ID":38765,"ELEMENT_SET_NO":999,"REV_AT_EPOCH":10026,"BSTAR":0.00059519,"MEAN_MOTION_DOT":0.00014497,"MEAN_MOTION_DDOT":0}]
